{"type": "FeatureCollection", "features": [ {"type": "Feature", "properties": {"norad_id": 66524, "name": "STARLINK-35687", "group": "last-30-days", "lat": 37.469984334131325, "lon": -163.61443069917334, "alt_km": 407.4690512720708, "timestamp": "2025-12-09T16:56:35.358835+00:00", "meta": {"OBJECT_NAME": "STARLINK-35687", "OBJECT_ID": "2025-265J", "EPOCH": "2025-12-09T12:00:02.000160", "MEAN_MOTION": 15.52426446, "ECCENTRICITY": 0.000158, "INCLINATION": 42.9999, "RA_OF_ASC_NODE": 72.9345, "ARG_OF_PERICENTER": 279.1141, "MEAN_ANOMALY": 125.704, "EPHEMERIS_TYPE": 0, "CLASSIFICATION_TYPE": "U", "NORAD_CAT_ID": 66524, "ELEMENT_SET_NO": 999, "REV_AT_EPOCH": 447, "BSTAR": -0.037446, "MEAN_MOTION_DOT": -0.02087379, "MEAN_MOTION_DDOT": 0}, "tle": {"line1": "1 66524U 25265J   25343.50002315 -.02087379  00000+0 -37446-1 0  9998", "line2": "2 66524  42.9999  72.9345 0001580 279.1141 125.7040 15.52426446  4479"}}, "geometry": {"type": "Point", "coordinates": [-163.61443069917334, 37.469984334131325]}}, {"type": "Feature", "properties": {"norad_id": 66525, "name": "STARLINK-35975", "group": "last-30-days", "lat": 36.711890248927254, "lon": -161.4312603207694, "alt_km": 407.495984000574, "timestamp": "2025-12-09T16:56:35.358869+00:00", "meta": {"OBJECT_NAME": "STARLINK-35975", "OBJECT_ID": "2025-265K", "EPOCH": "2025-12-09T12:00:02.000160", "MEAN_MOTION": 15.52408568, "ECCENTRICITY": 0.0001501, "INCLINATION": 42.9996, "RA_OF_ASC_NODE": 72.93, "ARG_OF_PERICENTER": 276.4965, "MEAN_ANOMALY": 130.2281, "EPHEMERIS_TYPE": 0, "CLASSIFICATION_TYPE": "U", "NORAD_CAT_ID": 66525, "ELEMENT_SET_NO": 999, "REV_AT_EPOCH": 447, "BSTAR": -0.036602, "MEAN_MOTION_DOT": -0.02044208, "MEAN_MOTION_DDOT": 0}, "tle": {"line1": "1 66525U 25265K   25343.50002315 -.02044208  00000+0 -36602-1 0  9996", "line2": "2 66525  42.9996  72.9300 0001501 276.4965 130.2281 15.52408568  4478"}}, "geometry": {"type": "Point", "coordinates": [-161.4312603207694, 36.711890248927254]}}, {"type": "Feature", "properties": {"norad_id": 66526, "name": "STARLINK-35932", "group": "last-30-days", "lat": 35.908945892453545, "lon": -159.27684489292653, "alt_km": 407.67288770254254, "timestamp": "2025-12-09T16:56:35.358893+00:00", "meta": {"OBJECT_NAME": "STARLINK-35932", "OBJECT_ID": "2025-265L", "EPOCH": "2025-12-09T12:00:02.000160", "MEAN_MOTION": 15.52398926, "ECCENTRICITY": 0.000155, "INCLINATION": 42.9996, "RA_OF_ASC_NODE": 72.9252, "ARG_OF_PERICENTER": 279.9112, "MEAN_ANOMALY": 128.7311, "EPHEMERIS_TYPE": 0, "CLASSIFICATION_TYPE": "U", "NORAD_CAT_ID": 66526, "ELEMENT_SET_NO": 999, "REV_AT_EPOCH": 436, "BSTAR": -0.036301, "MEAN_MOTION_DOT": -0.0202858, "MEAN_MOTION_DDOT": 0}, "tle": {"line1": "1 66526U 25265L   25343.50002315 -.02028580  00000+0 -36301-1 0  9998", "line2": "2 66526  42.9996  72.9252 0001550 279.9112 128.7311 15.52398926  4361"}}, "geometry": {"type": "Point", "coordinates": [-159.27684489292653, 35.908945892453545]}}, {"type": "Feature", "properties": {"norad_id": 66527, "name": "STARLINK-35935", "group": "last-30-days", "lat": 35.06633008017666, "lon": -157.16222761273914, "alt_km": 407.6228995293086, "timestamp": "2025-12-09T16:56:35.358904+00:00", "meta": {"OBJECT_NAME": "STARLINK-35935", "OBJECT_ID": "2025-265M", "EPOCH": "2025-12-09T12:00:02.000160", "MEAN_MOTION": 15.52402362, "ECCENTRICITY": 0.0001336, "INCLINATION": 42.9996, "RA_OF_ASC_NODE": 72.9206, "ARG_OF_PERICENTER": 275.8104, "MEAN_ANOMALY": 134.7491, "EPHEMERIS_TYPE": 0, "CLASSIFICATION_TYPE": "U", "NORAD_CAT_ID": 66527, "ELEMENT_SET_NO": 999, "REV_AT_EPOCH": 447, "BSTAR": -0.036401, "MEAN_MOTION_DOT": -0.02033686, "MEAN_MOTION_DDOT": 0}, "tle": {"line1": "1 66527U 25265M   25343.50002315 -.02033686  00000+0 -36401-1 0  9993", "line2": "2 66527  42.9996  72.9206 0001336 275.8104 134.7491 15.52402362  4477"}}, "geometry": {"type": "Point", "coordinates": [-157.16222761273914, 35.06633008017666]}}, {"type": "Feature", "properties": {"norad_id": 66528, "name": "STARLINK-35928", "group": "last-30-days", "lat": 34.188814734498216, "lon": -155.09431715544324, "alt_km": 407.86278046978987, "timestamp": "2025-12-09T16:56:35.358915+00:00", "meta": {"OBJECT_NAME": "STARLINK-35928", "OBJECT_ID": "2025-265N", "EPOCH": "2025-12-09T12:00:02.000160", "MEAN_MOTION": 15.52403751, "ECCENTRICITY": 0.000149, "INCLINATION": 42.9999, "RA_OF_ASC_NODE": 72.9156, "ARG_OF_PERICENTER": 278.1687, "MEAN_ANOMALY": 134.3065, "EPHEMERIS_TYPE": 0, "CLASSIFICATION_TYPE": "U", "NORAD_CAT_ID": 66528, "ELEMENT_SET_NO": 999, "REV_AT_EPOCH": 447, "BSTAR": -0.036431, "MEAN_MOTION_DOT": -0.02035385, "MEAN_MOTION_DDOT": 0}, "tle": {"line1": "1 66528U 25265N   25343.50002315 -.02035385  00000+0 -36431-1 0  9995", "line2": "2 66528  42.9999  72.9156 0001490 278.1687 134.3065 15.52403751  4474"}}, "geometry": {"type": "Point", "coordinates": [-155.09431715544324, 34.188814734498216]}}, {"type": "Feature", "properties": {"norad_id": 66529, "name": "STARLINK-35933", "group": "last-30-days", "lat": 33.27676289198459, "lon": -153.069867445687, "alt_km": 407.9730284296056, "timestamp": "2025-12-09T16:56:35.358925+00:00", "meta": {"OBJECT_NAME": "STARLINK-35933", "OBJECT_ID": "2025-265P", "EPOCH": "2025-12-09T12:00:02.000160", "MEAN_MOTION": 15.5240619, "ECCENTRICITY": 0.0001516, "INCLINATION": 42.9998, "RA_OF_ASC_NODE": 72.9106, "ARG_OF_PERICENTER": 274.9461, "MEAN_ANOMALY": 139.4456, "EPHEMERIS_TYPE": 0, "CLASSIFICATION_TYPE": "U", "NORAD_CAT_ID": 66529, "ELEMENT_SET_NO": 999, "REV_AT_EPOCH": 447, "BSTAR": -0.036484, "MEAN_MOTION_DOT": -0.02038172, "MEAN_MOTION_DDOT": 0}, "tle": {"line1": "1 66529U 25265P   25343.50002315 -.02038172  00000+0 -36484-1 0  9991", "line2": "2 66529  42.9998  72.9106 0001516 274.9461 139.4456 15.52406190  4472"}}, "geometry": {"type": "Point", "coordinates": [-153.069867445687, 33.27676289198459]}}, {"type": "Feature", "properties": {"norad_id": 66530, "name": "STARLINK-35961", "group": "last-30-days", "lat": 32.33247462464996, "lon": -151.08751570489002, "alt_km": 408.14767169777315, "timestamp": "2025-12-09T16:56:35.358935+00:00", "meta": {"OBJECT_NAME": "STARLINK-35961", "OBJECT_ID": "2025-265Q", "EPOCH": "2025-12-09T12:00:02.000160", "MEAN_MOTION": 15.5240087, "ECCENTRICITY": 0.000151, "INCLINATION": 42.9999, "RA_OF_ASC_NODE": 72.9059, "ARG_OF_PERICENTER": 278.684, "MEAN_ANOMALY": 137.6261, "EPHEMERIS_TYPE": 0, "CLASSIFICATION_TYPE": "U", "NORAD_CAT_ID": 66530, "ELEMENT_SET_NO": 999, "REV_AT_EPOCH": 447, "BSTAR": -0.036356, "MEAN_MOTION_DOT": -0.02031459, "MEAN_MOTION_DDOT": 0}, "tle": {"line1": "1 66530U 25265Q   25343.50002315 -.02031459  00000+0 -36356-1 0  9992", "line2": "2 66530  42.9999  72.9059 0001510 278.6840 137.6261 15.52400870  4471"}}, "geometry": {"type": "Point", "coordinates": [-151.08751570489002, 32.33247462464996]}}, {"type": "Feature", "properties": {"norad_id": 66531, "name": "STARLINK-35960", "group": "last-30-days", "lat": 31.35996131323095, "lon": -149.1519160463446, "alt_km": 408.1595132615821, "timestamp": "2025-12-09T16:56:35.358945+00:00", "meta": {"OBJECT_NAME": "STARLINK-35960", "OBJECT_ID": "2025-265R", "EPOCH": "2025-12-09T12:00:02.000160", "MEAN_MOTION": 15.52378104, "ECCENTRICITY": 0.0001225, "INCLINATION": 42.9999, "RA_OF_ASC_NODE": 72.9007, "ARG_OF_PERICENTER": 281.0411, "MEAN_ANOMALY": 137.1904, "EPHEMERIS_TYPE": 0, "CLASSIFICATION_TYPE": "U", "NORAD_CAT_ID": 66531, "ELEMENT_SET_NO": 999, "REV_AT_EPOCH": 447, "BSTAR": -0.03578, "MEAN_MOTION_DOT": -0.0200101, "MEAN_MOTION_DDOT": 0}, "tle": {"line1": "1 66531U 25265R   25343.50002315 -.02001010  00000+0 -35780-1 0  9993", "line2": "2 66531  42.9999  72.9007 0001225 281.0411 137.1904 15.52378104  4473"}}, "geometry": {"type": "Point", "coordinates": [-149.1519160463446, 31.35996131323095]}}, {"type": "Feature", "properties": {"norad_id": 66532, "name": "STARLINK-35914", "group": "last-30-days", "lat": 30.352916223618767, "lon": -147.2455498323085, "alt_km": 408.4347783992989, "timestamp": "2025-12-09T16:56:35.358964+00:00", "meta": {"OBJECT_NAME": "STARLINK-35914", "OBJECT_ID": "2025-265S", "EPOCH": "2025-12-09T12:00:02.000160", "MEAN_MOTION": 15.5240948, "ECCENTRICITY": 0.0001506, "INCLINATION": 42.9997, "RA_OF_ASC_NODE": 72.896, "ARG_OF_PERICENTER": 279.9231, "MEAN_ANOMALY": 140.2184, "EPHEMERIS_TYPE": 0, "CLASSIFICATION_TYPE": "U", "NORAD_CAT_ID": 66532, "ELEMENT_SET_NO": 999, "REV_AT_EPOCH": 447, "BSTAR": -0.036606, "MEAN_MOTION_DOT": -0.02044497, "MEAN_MOTION_DDOT": 0}, "tle": {"line1": "1 66532U 25265S   25343.50002315 -.02044497  00000+0 -36606-1 0  9998", "line2": "2 66532  42.9997  72.8960 0001506 279.9231 140.2184 15.52409480  4474"}}, "geometry": {"type": "Point", "coordinates": [-147.2455498323085, 30.352916223618767]}}, {"type": "Feature", "properties": {"norad_id": 66533, "name": "STARLINK-35707", "group": "last-30-days", "lat": 29.32238044646242, "lon": -145.38467616816186, "alt_km": 408.52506666335285, "timestamp": "2025-12-09T16:56:35.358974+00:00", "meta": {"OBJECT_NAME": "STARLINK-35707", "OBJECT_ID": "2025-265T", "EPOCH": "2025-12-09T12:00:02.000160", "MEAN_MOTION": 15.52403756, "ECCENTRICITY": 0.0001433, "INCLINATION": 42.9997, "RA_OF_ASC_NODE": 72.8915, "ARG_OF_PERICENTER": 278.0963, "MEAN_ANOMALY": 143.9649, "EPHEMERIS_TYPE": 0, "CLASSIFICATION_TYPE": "U", "NORAD_CAT_ID": 66533, "ELEMENT_SET_NO": 999, "REV_AT_EPOCH": 447, "BSTAR": -0.036465, "MEAN_MOTION_DOT": -0.02037015, "MEAN_MOTION_DDOT": 0}, "tle": {"line1": "1 66533U 25265T   25343.50002315 -.02037015  00000+0 -36465-1 0  9990", "line2": "2 66533  42.9997  72.8915 0001433 278.0963 143.9649 15.52403756  4472"}}, "geometry": {"type": "Point", "coordinates": [-145.38467616816186, 29.32238044646242]}}]}